{
    "links": {
        "self": "http://www.neowsapp.com/rest/v1/neo/3774565?api_key=iIulBulltgU6a56xZRHN4H3l9WmuAYTsLGpBGhQ2"
    },
    "id": "3774565",
    "neo_reference_id": "3774565",
    "name": "(2017 JT1)",
    "designation": "2017 JT1",
    "nasa_jpl_url": "http://ssd.jpl.nasa.gov/sbdb.cgi?sstr=3774565",
    "absolute_magnitude_h": 22.4,
    "estimated_diameter": {
        "kilometers": {
            "estimated_diameter_min": 0.0880146521,
            "estimated_diameter_max": 0.1968067451
        },
        "meters": {
            "estimated_diameter_min": 88.0146520901,
            "estimated_diameter_max": 196.8067450894
        },
        "miles": {
            "estimated_diameter_min": 0.0546897524,
            "estimated_diameter_max": 0.122290004
        },
        "feet": {
            "estimated_diameter_min": 288.7619911632,
            "estimated_diameter_max": 645.6914415591
        }
    },
    "is_potentially_hazardous_asteroid": false,
    "close_approach_data": [
        {
            "close_approach_date": "2017-04-23",
            "close_approach_date_full": "2017-Apr-23 12:39",
            "epoch_date_close_approach": 1492951140000,
            "relative_velocity": {
                "kilometers_per_second": "17.5285339189",
                "kilometers_per_hour": "63102.7221079867",
                "miles_per_hour": "39209.5775231543"
            },
            "miss_distance": {
                "astronomical": "0.0763199997",
                "lunar": "29.6884798833",
                "kilometers": "11417309.393520639",
                "miles": "7094387.0860332582"
            },
            "orbiting_body": "Earth"
        },
        {
            "close_approach_date": "2168-12-10",
            "close_approach_date_full": "2168-Dec-10 02:05",
            "epoch_date_close_approach": 6278004300000,
            "relative_velocity": {
                "kilometers_per_second": "17.1776523244",
                "kilometers_per_hour": "61839.5483679552",
                "miles_per_hour": "38424.6904845219"
            },
            "miss_distance": {
                "astronomical": "0.0767487253",
                "lunar": "29.8552541417",
                "kilometers": "11481445.830095111",
                "miles": "7134239.6197340918"
            },
            "orbiting_body": "Earth"
        }
    ],
    "orbital_data": {
        "orbit_id": "3",
        "orbit_determination_date": "2017-05-22 06:19:36",
        "first_observation_date": "2017-05-03",
        "last_observation_date": "2017-05-21",
        "data_arc_in_days": 18,
        "observations_used": 42,
        "orbit_uncertainty": "8",
        "minimum_orbit_intersection": ".0391841",
        "jupiter_tisserand_invariant": "3.331",
        "epoch_osculation": "2457878.5",
        "eccentricity": ".6533738097116245",
        "semi_major_axis": "2.212675131146426",
        "inclination": "7.130707190069471",
        "ascending_node_longitude": "59.0540040764355",
        "orbital_period": "1202.194976698569",
        "perihelion_distance": ".7669711510551173",
        "perihelion_argument": "83.07018578493273",
        "aphelion_distance": "3.658379111237735",
        "perihelion_time": "2457822.403991074514",
        "mean_anomaly": "16.79807652218997",
        "mean_motion": ".2994522577266301",
        "equinox": "J2000",
        "orbit_class": {
            "orbit_class_type": "APO",
            "orbit_class_description": "Near-Earth asteroid orbits which cross the Earth’s orbit similar to that of 1862 Apollo",
            "orbit_class_range": "a (semi-major axis) > 1.0 AU; q (perihelion) < 1.017 AU"
        }
    },
    "is_sentry_object": false
}